[{"OBJECT_NAME":"JILIN-1 08","OBJECT_ID":"2018-008F","EPOCH":"2026-03-09T22:37:53.184288","MEAN_MOTION":15.32205976,"ECCENTRICITY":0.00081321,"INCLINATION":97.1902,"RA_OF_ASC_NODE":90.9961,"ARG_OF_PERICENTER":76.0646,"MEAN_ANOMALY":284.15,"EPHEMERIS_TYPE":0,"CLASSIFICATION_TYPE":"U","NORAD_CAT_ID":43160,"ELEMENT_SET_NO":999,"REV_AT_EPOCH":44974,"BSTAR":0.00036689195,"MEAN_MOTION_DOT":0.00011349,"MEAN_MOTION_DDOT":0},{"OBJECT_NAME":"STARLINK-35545","OBJECT_ID":"2025-236Z","EPOCH":"2026-03-09T11:38:15.582912","MEAN_MOTION":15.30191407,"ECCENTRICITY":0.0001675,"INCLINATION":53.16,"RA_OF_ASC_NODE":104.794,"ARG_OF_PERICENTER":77.205,"MEAN_ANOMALY":282.9138,"EPHEMERIS_TYPE":0,"CLASSIFICATION_TYPE":"U","NORAD_CAT_ID":66109,"ELEMENT_SET_NO":999,"REV_AT_EPOCH":2291,"BSTAR":0.00099837529,"MEAN_MOTION_DOT":0.00029319,"MEAN_MOTION_DDOT":0}]
